NORAD_CAT_ID,OBJECT_NAME,OBJECT_TYPE,EPOCH,MEAN_MOTION,ECCENTRICITY,INCLINATION,RA_OF_ASC_NODE,ARG_OF_PERICENTER,MEAN_ANOMALY,BSTAR,MEAN_MOTION_DOT,MEAN_MOTION_DDOT,TLE_LINE0,TLE_LINE1,TLE_LINE2,SEMIMAJOR_AXIS,PERIOD,APOGEE,PERIGEE,DECAYED
50156.0,STARLINK-3317,PAYLOAD,2022-03-06 14:00:01,15.35664105,0.0001585999999999,53.2175,343.9846,46.2465,234.8109,-0.015849,-0.00521088,0.0,0 STARLINK-3317,1 50156U 21125A   22065.58334491 -.00521088  00000-0 -15849-1 0  9994,2 50156  53.2175 343.9846 0001586  46.2465 234.8109 15.35664105  3664,6837.0859999999975,93.771,460.035,457.866,0.0
50156.0,STARLINK-3317,PAYLOAD,2022-03-06 22:00:00,15.35297166,0.0001779,53.2177,342.4271,36.6158,288.0435,-0.01615,-0.00524531,0.0,0 STARLINK-3317,1 50156U 21125A   22065.91667824 -.00524531  00000-0 -16150-1 0  9992,2 50156  53.2177 342.4271 0001779  36.6158 288.0435 15.35297166  3671,6838.175,93.793,461.256,458.823,0.0
50156.0,STARLINK-3317,PAYLOAD,2022-03-07 06:00:00,15.34926811,0.0001439,53.2173,340.8708,46.725,321.0936,-0.01624,-0.00521403,0.0,0 STARLINK-3317,1 50156U 21125A   22066.25001157 -.00521403  00000-0 -16240-1 0  9996,2 50156  53.2173 340.8708 0001439  46.7250 321.0936 15.34926811 15157,6839.275,93.816,462.124,460.156,0.0
50156.0,STARLINK-3317,PAYLOAD,2022-03-07 12:00:00,15.34652476,0.0001415,53.2175,339.7017,54.1988,255.6991,-0.016551,-0.00526388,0.0,0 STARLINK-3317,1 50156U 21125A   22066.50001157 -.00526388  00000-0 -16551-1 0  9996,2 50156  53.2175 339.7017 0001415  54.1988 255.6991 15.34652476  3708,6840.09,93.832,462.923,460.987,0.0
50156.0,STARLINK-3317,PAYLOAD,2022-03-07 22:00:00,15.34190279,0.0001874,53.2174,337.7577,33.4515,59.3571,-0.01674,-0.00524752,0.0,0 STARLINK-3317,1 50156U 21125A   22066.91667824 -.00524752  00000-0 -16740-1 0  9993,2 50156  53.2174 337.7577 0001874  33.4515  59.3571 15.34190279  3645,6841.464,93.861,464.611,462.047,0.0
50156.0,STARLINK-3317,PAYLOAD,2022-03-08 06:00:02,15.33819671,0.0001976,53.2171,336.2036,32.692,102.0104,-0.016815,-0.00521171,0.0,0 STARLINK-3317,1 50156U 21125A   22067.25002315 -.00521171  00000-0 -16815-1 0  9994,2 50156  53.2171 336.2036 0001976  32.6920 102.0104 15.33819671 15318,6842.566,93.883,465.783,463.079,0.0
50156.0,STARLINK-3317,PAYLOAD,2022-03-08 14:00:01,15.33450944,0.0001798,53.2172,334.6478,38.7915,137.2346,-0.0170349999999999,-0.00521775,0.0,0 STARLINK-3317,1 50156U 21125A   22067.58334491 -.00521775  00000-0 -17035-1 0  9998,2 50156  53.2172 334.6478 0001798  38.7915 137.2346 15.33450944  3661,6843.6619999999975,93.906,466.758,464.297,0.0
50156.0,STARLINK-3317,PAYLOAD,2022-03-08 22:00:00,15.33081506,0.0001899,53.2174,333.0959,39.6447,177.3243,-0.017208,-0.00520997,0.0,0 STARLINK-3317,1 50156U 21125A   22067.91667824 -.00520997  00000-0 -17208-1 0  9991,2 50156  53.2174 333.0959 0001899  39.6447 177.3243 15.33081506  3678,6844.762,93.928,467.927,465.327,0.0
50156.0,STARLINK-3317,PAYLOAD,2022-03-09 14:00:01,15.32343188,0.0001684,53.2173,329.9911,40.5947,256.9319,-0.017581,-0.00520055,0.0,0 STARLINK-3317,1 50156U 21125A   22068.58334491 -.00520055  00000-0 -17581-1 0  9995,2 50156  53.2173 329.9911 0001684  40.5947 256.9319 15.32343188  3671,6846.96,93.974,469.978,467.672,0.0
50156.0,STARLINK-3317,PAYLOAD,2022-03-09 16:00:00,15.32191355,0.0001965,53.2173,329.6022,30.6007,6.9001,-0.014611,-0.00435068,0.0,0 STARLINK-3317,1 50156U 21125A   22068.66667824 -.00435068  00000-0 -14611-1 0  9993,2 50156  53.2173 329.6022 0001965  30.6007   6.9001 15.32191355 15525,6847.413000000001,93.983,470.62300000000016,467.932,0.0
50156.0,STARLINK-3317,PAYLOAD,2022-03-09 22:00:01,15.31976373,0.0001925,53.2174,328.4418,32.7403,304.462,-0.017913,-0.00523566,0.0,0 STARLINK-3317,1 50156U 21125A   22068.91668981 -.00523566  00000-0 -17913-1 0  9995,2 50156  53.2174 328.4418 0001925  32.7403 304.4620 15.31976373  3655,6848.053000000001,93.996,471.237,468.6,0.0
50156.0,STARLINK-3317,PAYLOAD,2022-03-10 06:00:00,15.31515014,0.0001679,53.2171,326.8916,32.2713,344.0857,-0.013509,-0.00395854,0.0,0 STARLINK-3317,1 50156U 21125A   22069.25001157 -.00395854  00000-0 -13509-1 0  9993,2 50156  53.2171 326.8916 0001679  32.2713 344.0857 15.31515014 15614,6849.428000000001,94.025,472.444,470.143,0.0
50156.0,STARLINK-3317,PAYLOAD,2022-03-10 14:00:01,15.31238693,0.0001899,53.2174,325.3419,31.1745,23.8613,-0.01833,-0.00523493,0.0,0 STARLINK-3317,1 50156U 21125A   22069.58334491 -.00523493  00000-0 -18330-1 0  9998,2 50156  53.2174 325.3419 0001899  31.1745  23.8613 15.31238693  3621,6850.252,94.042,473.418,470.817,0.0
50156.0,STARLINK-3317,PAYLOAD,2022-03-10 20:00:01,15.3096276,0.00019,53.2176,324.1822,32.3226,321.4667,-0.018552,-0.0052516,0.0,0 STARLINK-3317,1 50156U 21125A   22069.83334491 -.00525160  00000-0 -18552-1 0  9995,2 50156  53.2176 324.1822 0001900  32.3226 321.4667 15.30962760 15704,6851.076,94.058,474.242,471.639,0.0
50156.0,STARLINK-3317,PAYLOAD,2022-03-10 22:00:01,15.30869637,0.0002059,53.2174,323.7959,29.7661,63.6164,-0.018565,-0.00524092,0.0,0 STARLINK-3317,1 50156U 21125A   22069.91668981 -.00524092  00000-0 -18565-1 0  9995,2 50156  53.2174 323.7959 0002059  29.7661  63.6164 15.30869637  3654,6851.353,94.064,474.629,471.8080000000001,0.0
50156.0,STARLINK-3317,PAYLOAD,2022-03-11 14:00:01,15.30132265,0.0001833,53.2172,320.7013,38.4937,130.0629,-0.019033,-0.00525006,0.0,0 STARLINK-3317,1 50156U 21125A   22070.58334491 -.00525006  00000-0 -19033-1 0  9993,2 50156  53.2172 320.7013 0001833  38.4937 130.0629 15.30132265  3635,6853.554,94.11,476.676,474.163,0.0
50156.0,STARLINK-3317,PAYLOAD,2022-03-11 22:00:00,15.29760893,0.0002028,53.2174,319.1576,35.8046,169.7057,-0.019087,-0.0052077,0.0,0 STARLINK-3317,1 50156U 21125A   22070.91667824 -.00520770  00000-0 -19087-1 0  9991,2 50156  53.2174 319.1576 0002028  35.8046 169.7057 15.29760893 15877,6854.663000000001,94.132,477.919,475.138,0.0
50156.0,STARLINK-3317,PAYLOAD,2022-03-12 14:00:01,15.2902375,0.0001781999999999,53.2173,316.068,40.1641,237.9243,-0.019574,-0.00521903,0.0,0 STARLINK-3317,1 50156U 21125A   22071.58334491 -.00521903  00000-0 -19574-1 0  9996,2 50156  53.2173 316.0680 0001782  40.1641 237.9243 15.29023750  3667,6856.866,94.178,479.953,477.509,0.0
50156.0,STARLINK-3317,PAYLOAD,2022-03-12 22:00:00,15.28655265,0.0002002,53.2174,314.5272,32.8069,280.9039,-0.019813,-0.00522297,0.0,0 STARLINK-3317,1 50156U 21125A   22071.91667824 -.00522297  00000-0 -19813-1 0  9995,2 50156  53.2174 314.5272 0002002  32.8069 280.9039 15.28655265  3657,6857.968000000003,94.2,481.206,478.46,0.0
50156.0,STARLINK-3317,PAYLOAD,2022-03-13 06:00:00,15.28288736,0.0001605,53.2173,312.9852,42.0929,306.7975,-0.020203,-0.00526281,0.0,0 STARLINK-3317,1 50156U 21125A   22072.25001157 -.00526281  00000-0 -20203-1 0  9996,2 50156  53.2173 312.9852 0001605  42.0929 306.7975 15.28288736 16079,6859.065,94.223,482.031,479.829,0.0
50156.0,STARLINK-3317,PAYLOAD,2022-03-13 14:00:01,15.27916074,0.0001839,53.2173,311.4428,32.9188,350.7112,-0.020191,-0.00520415,0.0,0 STARLINK-3317,1 50156U 21125A   22072.58334491 -.00520415  00000-0 -20191-1 0  9991,2 50156  53.2173 311.4428 0001839  32.9188 350.7112 15.27916074  3650,6860.18,94.246,483.307,480.783,0.0
50156.0,STARLINK-3317,PAYLOAD,2022-03-13 22:00:01,15.27550147,0.0002125,53.2175,309.9046,28.0609,29.9243,-0.020614,-0.0052508999999999,0.0,0 STARLINK-3317,1 50156U 21125A   22072.91668981 -.00525090  00000-0 -20614-1 0  9996,2 50156  53.2175 309.9046 0002125  28.0609  29.9243 15.27550147  3658,6861.275,94.269,484.599,481.682,0.0
50156.0,STARLINK-3317,PAYLOAD,2022-03-14 14:00:01,15.26811343,0.0001812,53.2175,306.8253,38.5638,86.6807,-0.021021,-0.00523584,0.0,0 STARLINK-3317,1 50156U 21125A   22073.58335648 -.00523584  00000-0 -21021-1 0  9990,2 50156  53.2175 306.8253 0001812  38.5638  86.6807 15.26811343 16280,6863.489000000001,94.314,486.597,484.11,0.0
50156.0,STARLINK-3317,PAYLOAD,2022-03-14 20:00:01,15.26535171,0.000195,53.2176,305.6736,32.644,27.3004,-0.021227,-0.00524253,0.0,0 STARLINK-3317,1 50156U 21125A   22073.83334491 -.00524253  00000-0 -21227-1 0  9995,2 50156  53.2176 305.6736 0001950  32.6440  27.3004 15.26535171  3620,6864.316,94.331,487.52,484.843,0.0
50156.0,STARLINK-3317,PAYLOAD,2022-03-15 02:00:01,15.26256182,0.0001903,53.2176,304.5217,33.0204,321.4393,-0.021222,-0.00519998,0.0,0 STARLINK-3317,1 50156U 21125A   22074.08334491 -.00519998  00000-0 -21222-1 0  9998,2 50156  53.2176 304.5217 0001903  33.0204 321.4393 15.26256182  3635,6865.153,94.349,488.324,485.712,0.0
50156.0,STARLINK-3317,PAYLOAD,2022-03-15 22:00:00,15.25334617,0.0002048,53.2176,300.6827,35.6516,218.7247,-0.021901,-0.00521753,0.0,0 STARLINK-3317,1 50156U 21125A   22074.91667824 -.00521753  00000-0 -21901-1 0  9995,2 50156  53.2176 300.6827 0002048  35.6516 218.7247 15.25334617 16486,6867.918000000002,94.406,491.189,488.376,0.0
50156.0,STARLINK-3317,PAYLOAD,2022-03-16 14:00:01,15.24596244,0.0001844,53.2177,297.6138,37.278,279.0378,-0.02233,-0.00520345,0.0,0 STARLINK-3317,1 50156U 21125A   22075.58334491 -.00520345  00000-0 -22330-1 0  9993,2 50156  53.2177 297.6138 0001844  37.2780 279.0378 15.24596244  3656,6870.135,94.451,493.267,490.733,0.0
50156.0,STARLINK-3317,PAYLOAD,2022-03-16 20:00:01,15.24319498,0.0001881,53.2175,296.466,39.262,209.8226,-0.022522,-0.00520468,0.0,0 STARLINK-3317,1 50156U 21125A   22075.83334491 -.00520468  00000-0 -22522-1 0  9990,2 50156  53.2175 296.4660 0001881  39.2620 209.8226 15.24319498  3643,6870.967,94.468,494.124,491.539,0.0
50156.0,STARLINK-3317,PAYLOAD,2022-03-17 06:00:00,15.23860548,0.0001523,53.2175,294.5513,46.0023,330.4774,-0.023025,-0.00524499,0.0,0 STARLINK-3317,1 50156U 21125A   22076.25001157 -.00524499  00000-0 -23025-1 0  9994,2 50156  53.2175 294.5513 0001523  46.0023 330.4774 15.23860548 16688,6872.346,94.497,495.258,493.164,0.0
